SAUDISAT 2              
1 28371U 04025F   26169.47143207  .00000182  00000+0  51780-4 0  9999
2 28371  98.5507 169.4865 0023549 294.1244  65.7491 14.56684550165935
COSMOS 2407             
1 28380U 04028A   26169.47001866  .00000064  00000+0  50479-4 0  9999
2 28380  82.9608  73.8841 0037855 248.2126 285.6980 13.76334826100057
COSMOS 2414             
1 28521U 05002A   26169.61813331  .00000046  00000+0  25999-4 0  9992
2 28521  82.9497  42.5642 0039393 327.1304  32.7410 13.87926632 84016
INMARSAT 4-F1           
1 28628U 05009A   26169.43113547  .00000024  00000+0  00000+0 0  9996
2 28628   5.1707  42.7662 0002595  44.5014 152.7205  1.00271147 77687
SJ-7                    
1 28737U 05024A   26169.60320351  .00006250  00000+0  27961-3 0  9992
2 28737  97.7278 199.7449 0016200  33.3423 326.8829 15.21561340148244
CUBESAT XI-V            
1 28895U 05043F   26168.94617719  .00001113  00000+0  18286-3 0  9994
2 28895  98.2987 324.5839 0013704 198.2082 161.8635 14.72633352101868
HINODE (SOLAR-B)        
1 29479U 06041A   26169.47987599  .00000523  00000+0  98344-4 0  9995
2 29479  98.0546 185.6133 0015978 285.2611  74.6828 14.68624622 55069
SHIJIAN-6 02B (SJ-6 02B)
1 29506U 06046B   26169.61262701  .00001208  00000+0  98234-4 0  9997
2 29506  97.7152 198.6628 0015404  56.3827 303.8865 15.01380923 70956
DMSP 5D-3 F17 (USA 191) 
1 29522U 06050A   26169.58392225 -.00000014  00000+0  15304-4 0  9993
2 29522  98.7378 176.1255 0011127  55.7492 304.4734 14.14993117 12621
LAPAN-TUBSAT            
1 29709U 07001A   26169.60111197 -.00000087  00000+0 -33441-5 0  9991
2 29709  98.1337 168.8570 0011978 174.7713 185.3629 14.85949049 51363
HAIYANG-1B              
1 31113U 07010A   26169.40337051  .00000073  00000+0  43731-4 0  9995
2 31113  98.3495 151.2014 0013089 192.6283 167.4575 14.31027209   818
COSMO-SKYMED 2          
1 32376U 07059A   26169.64627773  .00000293  00000+0  43410-4 0  9997
2 32376  97.8886 353.2230 0001351  87.8897 272.2471 14.82156051  2228
CARTOSAT-2A             
1 32783U 08021A   26169.60232701  .00000352  00000+0  54021-4 0  9994
2 32783  97.7628 218.2628 0013197 104.5637 255.7040 14.79240260979014
CUTE-1.7+APD II (CO-65) 
1 32785U 08021C   26169.57458570  .00004310  00000+0  27313-3 0  9997
2 32785  97.8275 151.0219 0009610  34.4891 325.6959 15.09461529985406
SEEDS II (CO-66)        
1 32791U 08021J   26169.44123303  .00014056  00000+0  44622-3 0  9993
2 32791  97.7517 167.3987 0000889 357.5135   2.6101 15.32786684987481
YUBILEINY (RS30)        
1 32953U 08025A   26169.54706704  .00000046  00000+0  26113-3 0  9999
2 32953  82.5036 354.5939 0018811 310.8246  49.1202 12.43179650819867
FENGYUN 3A              
1 32958U 08026A   26169.59796869  .00000060  00000+0  49021-4 0  9991
2 32958  98.6883 110.4048 0009644 119.9737 240.2398 14.19571403935605
HUANJING 1A (HJ-1A)     
1 33320U 08041A   26169.58230432  .00001066  00000+0  13377-3 0  9991
2 33320  97.6680 155.3669 0020051 130.4239 229.8729 14.83988639958611
HUANJING 1B (HJ-1B)     
1 33321U 08041B   26169.61946704  .00000441  00000+0  59597-4 0  9993
2 33321  97.6518 158.5701 0036145 176.1564 183.9935 14.83318738958620
SHIJIAN-6 03A (SJ-6 03A)
1 33408U 08053A   26169.56574767  .00006397  00000+0  32517-3 0  9990
2 33408  97.8402 202.9348 0011498  15.6697 344.4889 15.17181023963170
SHIJIAN-6 03B (SJ-6 03B)
1 33409U 08053B   26169.62971603  .00000486  00000+0  39381-4 0  9998
2 33409  97.8566 189.5459 0020674  40.3246 319.9508 15.04308771962964
